GORIZONT 1 [-]          
1 11158U 78118A   17050.14814762 -.00000056  00000-0  00000-0 0  9999
2 11158  15.9564 270.1137 3463071 186.4077 167.5273  1.00299815 88794
GORIZONT 2 [-]          
1 11440U 79062A   17049.74673390 -.00000215  00000-0  00000+0 0  9992
2 11440  13.0366 325.0096 0006022 272.9262 266.2847  1.00295470103867
GORIZONT 3 [-]          
1 11648U 79105A   17051.80312119 -.00000007  00000-0  00000+0 0  9998
2 11648  13.1353 326.1585 0011303 177.1753   3.1984  1.00199299 88334
GORIZONT 4 [-]          
1 11841U 80049A   17051.25992984 -.00000145  00000-0  00000+0 0  9998
2 11841  14.1186 330.5710 0006033 284.1107 290.3717  0.98629150199976
GORIZONT 5 [-]          
1 13092U 82020A   17049.03520601 -.00000204  00000-0  00000+0 0  9991
2 13092  14.8477 335.3738 0032014 164.7903  18.0068  0.98533413 88016
GORIZONT 6 [-]          
1 13624U 82103A   17051.13722939 -.00000237  00000-0  00000+0 0  9992
2 13624  13.7054 335.2280 0003373 253.7059 299.7254  1.00262903 86801
GORIZONT 7 [-]          
1 14160U 83066A   17051.53973840 -.00000155  00000-0  00000+0 0  9999
2 14160  14.9079 342.9435 0015170 264.6846 288.7773  0.98348800121314
GORIZONT 8 [-]          
1 14532U 83118A   17050.24345661 -.00000095  00000-0  00000-0 0  9995
2 14532  14.9684 344.5339 0023228  98.8367  84.6839  0.98269066 87041
GORIZONT 9 [-]          
1 14940U 84041A   17050.92622512  .00000044  00000-0  00000+0 0  9994
2 14940  14.2106 343.1890 0006515 218.1145 338.9000  1.00300293 87883
GORIZONT 10 [-]         
1 15144U 84078A   17050.24654928 -.00000298  00000-0  00000-0 0  9995
2 15144  14.2411 344.1782 0005585 268.6692 295.3529  1.00329983120431
GORIZONT 11 [-]         
1 15484U 85007A   17052.14538045 -.00000226  00000-0  00000+0 0  9997
2 15484  14.2861 345.9187 0002643 260.7128 289.0091  1.00238695118502
GORIZONT 12 [-]         
1 16769U 86044A   17050.79287737 -.00000338  00000-0  00000-0 0  9999
2 16769  14.5462 350.7979 0006140 251.8408 295.1556  1.00317052113133
GORIZONT 13 [-]         
1 17083U 86090A   17050.76784352 -.00000128  00000-0  00000+0 0  9998
2 17083  15.9890 356.7015 0019555 279.2534 268.5646  0.96725659 85736
GORIZONT 14 [-]         
1 17969U 87040A   17051.41178394 -.00000069  00000-0  00000+0 0  9997
2 17969  15.5508 349.0715 0026313 128.6789  95.3659  0.97657535 86607
GORIZONT 15 [-]         
1 19017U 88028A   17050.32476853 -.00000057  00000-0  00000+0 0  9997
2 19017  15.9975   0.0691 0031307 108.6449  64.5766  0.97827220 86171
GORIZONT 16 [-]         
1 19397U 88071A   17050.32296333 -.00000155  00000-0  00000+0 0  9998
2 19397  14.9087 359.0151 0013875 339.4234 195.9434  0.99966398104184
GORIZONT 17 [-]         
1 19765U 89004A   17050.32599932 -.00000021  00000-0  00000+0 0  9997
2 19765  15.2117   1.9217 0016290  79.4281  87.7696  0.99063468101837
GORIZONT 18 [-]         
1 20107U 89052A   17049.03341167 -.00000031  00000-0  00000-0 0  9995
2 20107  15.1403   3.2844 0039903 262.1514 276.6592  0.99401805100556
GORIZONT 19 [-]         
1 20263U 89081A   17052.01089763  .00000107  00000-0  00000+0 0  9995
2 20263  14.9110   2.7284 0007037 238.1384 320.1779  1.00218486100369
GORIZONT 20 [-]         
1 20659U 90054A   17051.59744222  .00000064  00000-0  00000+0 0  9998
2 20659  15.1073   5.6726 0005905 175.5294 238.6785  1.00256377 97566
GORIZONT 21 [-]         
1 20923U 90094A   17050.66103215 -.00000252  00000-0  00000-0 0  9995
2 20923  15.0521   6.4740 0006990 211.1464 316.1729  1.00286353 96312
GORIZONT 22 [-]         
1 20953U 90102A   17050.11926545 -.00000027  00000-0  00000+0 0  9996
2 20953  14.9847   6.7687 0007060 264.1554 282.0168  1.00272192 96251
GORIZONT 23 [-]         
1 21533U 91046A   17052.22229692 -.00000279  00000-0  00000+0 0  9991
2 21533  15.4183  10.4318 0010009 252.5410 107.3347  0.98910024 87074
GORIZONT 24 [-]         
1 21759U 91074A   17051.11600391 -.00000204  00000-0  00000+0 0  9996
2 21759  15.4196  12.0532 0020753 188.0364 349.7865  0.98444594 91528
GORIZONT 25 [-]         
1 21922U 92017A   17052.20745473  .00000030  00000-0  00000+0 0  9994
2 21922  14.9940  11.8233 0023627  16.8474  29.2734  0.99855453 90951
GORIZONT 26 [-]         
1 22041U 92043A   17050.74118472 -.00000321  00000-0  00000-0 0  9991
2 22041  15.0062  13.4741 0033707 189.9658 352.5572  0.99245594 89688
GORIZONT 27 [-]         
1 22245U 92082A   17051.31034730 -.00000159  00000-0  00000+0 0  9996
2 22245  14.9313  13.6480 0015596 290.5008 302.0346  1.00212858 93041
GORIZONT 28 [-]         
1 22880U 93069A   17051.04685544  .00000088  00000-0  00000+0 0  9992
2 22880  14.7522  17.0301 0028127  81.8170 106.9729  0.99650805 85212
GORIZONT 29 [-]         
1 22907U 93072A   17051.46009799  .00000013  00000-0  00000+0 0  9992
2 22907  14.6992  16.7541 0015085 271.9019 265.0154  1.00117658 85112
GORIZONT 30 [-]         
1 23108U 94030A   17050.63540157  .00000092  00000-0  00000+0 0  9994
2 23108  14.6258  17.7675 0006075 229.0074 347.8436  1.00182502 83349
GORIZONT 31 [-]         
1 23775U 96005A   17050.74098653 -.00000364  00000-0  00000+0 0  9992
2 23775  14.0208  23.2989 0020752 162.7205   1.9821  0.99895964 77030
GORIZONT 32 [-]         
1 23880U 96034A   17050.45291161 -.00000103  00000-0  00000-0 0  9990
2 23880  13.9214  23.9591 0012294 269.2025 184.2216  1.00222198 75940
GORIZONT 33 [-]         
1 26372U 00029A   17050.74094841 -.00000359  00000-0  00000+0 0  9998
2 26372  11.7478  33.4005 0002941 238.8097 274.1342  1.00213394 61281
